{"type": "FeatureCollection", "features": [{"type": "Feature", "geometry": {"type": "MultiPolygon", "coordinates": [[[[-73.2448, -39.8089], [-73.252, -39.8316], [-73.2677, -39.8414], [-73.2587, -39.8468], [-73.2644, -39.8719], [-73.2548, -39.8618], [-73.2434, -39.8759], [-73.2404, -39.8536], [-73.2424, -39.8765], [-73.228, -39.8793], [-73.2261, -39.8593], [-73.2241, -39.8831], [-73.205, -39.8916], [-73.1753, -39.8839], [-73.1882, -39.8562], [-73.1496, -39.8907], [-73.1365, -39.8857], [-73.1552, -39.9111], [-73.1322, -39.9167], [-73.1424, -39.9307], [-73.1733, -39.8877], [-73.2073, -39.893], [-73.2598, -39.8762], [-73.2218, -39.9379], [-73.1586, -39.9431], [-73.1652, -39.9731], [-73.1388, -39.9962], [-73.1444, -40.009], [-73.0886, -40.017], [-73.0811, -40.0318], [-73.0661, -39.9974], [-72.9972, -39.976], [-73.0269, -39.9526], [-73.0066, -39.9329], [-72.9483, -39.925], [-72.9209, -39.9412], [-72.9407, -39.9045], [-72.9603, -39.9009], [-72.9493, -39.8667], [-72.9754, -39.8241], [-72.975, -39.7934], [-73.0127, -39.786], [-72.9884, -39.7763], [-73.0228, -39.6925], [-73.0815, -39.7103], [-73.1058, -39.6889], [-73.2333, -39.7307], [-73.2372, -39.7437], [-73.2496, -39.7461], [-73.2366, -39.79], [-73.2533, -39.7778], [-73.2643, -39.7843], [-73.2599, -39.7869], [-73.2569, -39.7904], [-73.2557, -39.7987], [-73.221, -39.8195], [-73.2114, -39.7936], [-73.1887, -39.7825], [-73.1625, -39.804], [-73.1905, -39.785], [-73.2171, -39.8223], [-73.2448, -39.8089]]], [[[-73.2558, -39.8952], [-73.2551, -39.8944], [-73.2559, -39.8942], [-73.2558, -39.8952]]], [[[-73.2657, -39.8924], [-73.2629, -39.8867], [-73.2663, -39.8868], [-73.2657, -39.8924]]], [[[-73.2821, -39.8791], [-73.281, -39.8791], [-73.282, -39.8786], [-73.2821, -39.8791]]], [[[-73.2819, -39.8771], [-73.2813, -39.8768], [-73.2819, -39.8768], [-73.2819, -39.8771]]], [[[-73.2829, -39.8782], [-73.2863, -39.8758], [-73.2876, -39.8762], [-73.2829, -39.8782]]], [[[-73.2837, -39.8763], [-73.2829, -39.8749], [-73.284, -39.8748], [-73.2837, -39.8763]]], [[[-73.2863, -39.8743], [-73.2879, -39.8757], [-73.2856, -39.8747], [-73.2863, -39.8743]]], [[[-73.2665, -39.8757], [-73.2801, -39.8744], [-73.2792, -39.8859], [-73.2665, -39.8757]]], [[[-73.2537, -39.871], [-73.2532, -39.8697], [-73.2566, -39.8704], [-73.2537, -39.871]]], [[[-73.3168, -39.8565], [-73.3177, -39.8578], [-73.3158, -39.8572], [-73.3168, -39.8565]]], [[[-73.2893, -39.8591], [-73.2886, -39.857], [-73.2901, -39.858], [-73.2893, -39.8591]]], [[[-73.2659, -39.8532], [-73.2632, -39.8536], [-73.2656, -39.8527], [-73.2659, -39.8532]]], [[[-73.2685, -39.8577], [-73.2718, -39.8524], [-73.2773, -39.86], [-73.2685, -39.8577]]], [[[-73.3064, -39.8494], [-73.2944, -39.8593], [-73.2909, -39.8563], [-73.3064, -39.8494]]], [[[-73.2611, -39.8344], [-73.253, -39.8312], [-73.2535, -39.8267], [-73.2611, -39.8344]]], [[[-73.2665, -39.7851], [-73.2601, -39.8266], [-73.2455, -39.8067], [-73.2565, -39.7988], [-73.2592, -39.7884], [-73.2665, -39.7851]]], [[[-73.2519, -39.7489], [-73.252, -39.7466], [-73.254, -39.7466], [-73.2519, -39.7489]]], [[[-73.2681, -39.7416], [-73.2765, -39.7425], [-73.2706, -39.7491], [-73.2681, -39.7416]]], [[[-73.2778, -39.7399], [-73.2774, -39.7364], [-73.2805, -39.7387], [-73.2778, -39.7399]]], [[[-73.2389, -39.7249], [-73.2359, -39.7388], [-73.2347, -39.7313], [-73.2326, -39.7298], [-73.2389, -39.7249]]], [[[-73.2526, -39.7286], [-73.2509, -39.725], [-73.253, -39.7236], [-73.2526, -39.7286]]], [[[-73.1974, -39.7078], [-73.2081, -39.7061], [-73.2073, -39.7116], [-73.1974, -39.7078]]], [[[-73.2011, -39.6999], [-73.1982, -39.6998], [-73.1981, -39.6996], [-73.2011, -39.6999]]], [[[-73.3008, -39.8473], [-73.3106, -39.8378], [-73.2844, -39.8326], [-73.2853, -39.8562], [-73.2682, -39.8378], [-73.2803, -39.799], [-73.2601, -39.7675], [-73.2787, -39.7409], [-73.2971, -39.745], [-73.2811, -39.7293], [-73.2633, -39.7375], [-73.2539, -39.7215], [-73.2411, -39.7191], [-73.2419, -39.6918], [-73.23, -39.6969], [-73.2388, -39.7151], [-73.2225, -39.7198], [-73.2, -39.6833], [-73.2371, -39.6672], [-73.2367, -39.6514], [-73.3231, -39.6372], [-73.3606, -39.6559], [-73.3507, -39.6715], [-73.3675, -39.6862], [-73.4051, -39.6944], [-73.4119, -39.7174], [-73.39, -39.7856], [-73.4098, -39.832], [-73.391, -39.8503], [-73.3973, -39.8761], [-73.3341, -39.8569], [-73.3475, -39.8096], [-73.3316, -39.8144], [-73.3434, -39.8174], [-73.3288, -39.8557], [-73.3008, -39.8473]]]]}, "properties": {"comuna": "Valdivia", "locode": "CL ZAL", "region": "Región de Los Ríos", "pool_status": "anchor", "unit_anchor": "Valdivia", "cofinance_score": 65.7, "is_anchor": true, "pool_role": "anchor"}}, {"type": "Feature", "geometry": {"type": "MultiPolygon", "coordinates": [[[[-73.4296, -39.8873], [-73.4326, -39.8615], [-73.4687, -39.8518], [-73.4837, -39.8912], [-73.5152, -39.9155], [-73.5926, -39.9314], [-73.5928, -39.957], [-73.6771, -39.9642], [-73.6807, -39.9923], [-73.7071, -40.0059], [-73.6658, -40.007], [-73.6263, -39.9805], [-73.5677, -39.9967], [-73.4865, -40.0443], [-73.4628, -40.0771], [-73.4786, -40.1021], [-73.4467, -40.1124], [-73.4161, -40.1161], [-73.3473, -40.0651], [-73.2717, -40.0667], [-73.2148, -40.1114], [-73.142, -40.0955], [-73.1587, -40.0589], [-73.1522, -40.0343], [-73.1734, -40.019], [-73.1389, -40.0011], [-73.165, -39.9736], [-73.1586, -39.9431], [-73.1942, -39.9495], [-73.2566, -39.9055], [-73.272, -39.9394], [-73.2857, -39.9487], [-73.3058, -39.9461], [-73.296, -39.9528], [-73.2935, -39.9591], [-73.2937, -39.9639], [-73.3025, -39.9711], [-73.2862, -39.983], [-73.2894, -39.9833], [-73.3031, -39.9708], [-73.2964, -39.9543], [-73.303, -39.9578], [-73.315, -39.954], [-73.3073, -39.9474], [-73.3269, -39.9521], [-73.3388, -39.9123], [-73.3558, -39.9162], [-73.376, -39.8943], [-73.3773, -39.943], [-73.392, -39.9442], [-73.4022, -39.9199], [-73.4164, -39.936], [-73.4026, -39.9069], [-73.4296, -39.8873]]], [[[-73.307, -39.9559], [-73.3069, -39.9492], [-73.3111, -39.9545], [-73.307, -39.9559]]], [[[-73.3177, -39.9481], [-73.3178, -39.9474], [-73.3185, -39.9475], [-73.3177, -39.9481]]], [[[-73.3157, -39.943], [-73.3161, -39.9424], [-73.3163, -39.9426], [-73.3157, -39.943]]], [[[-73.3497, -39.8992], [-73.3469, -39.9021], [-73.3452, -39.8994], [-73.3497, -39.8992]]], [[[-73.3601, -39.8941], [-73.3589, -39.8912], [-73.3613, -39.8929], [-73.3601, -39.8941]]], [[[-73.3967, -39.8937], [-73.3896, -39.8889], [-73.3939, -39.8861], [-73.3967, -39.8937]]], [[[-73.4328, -39.8599], [-73.4325, -39.8611], [-73.432, -39.8603], [-73.4328, -39.8599]]], [[[-73.3062, -39.8586], [-73.3797, -39.8841], [-73.3211, -39.8989], [-73.3446, -39.9016], [-73.3315, -39.9073], [-73.3293, -39.9311], [-73.2859, -39.9461], [-73.2575, -39.8993], [-73.3062, -39.8586]]]]}, "properties": {"comuna": "Corral", "locode": "CL CRR", "region": "Región de Los Ríos", "pool_status": "in viable pool", "unit_anchor": "Valdivia", "cofinance_score": 10.7, "is_anchor": false, "pool_role": "pool member"}}, {"type": "Feature", "geometry": {"type": "Polygon", "coordinates": [[[-72.7908, -39.4097], [-72.8318, -39.4105], [-72.8461, -39.4294], [-72.8465, -39.5098], [-72.7716, -39.5294], [-72.7471, -39.5654], [-72.639, -39.584], [-72.6013, -39.6084], [-72.6105, -39.6365], [-72.5933, -39.646], [-72.5663, -39.6365], [-72.5499, -39.5864], [-72.4933, -39.5891], [-72.4735, -39.5806], [-72.488, -39.5629], [-72.4615, -39.5449], [-72.4461, -39.5584], [-72.4102, -39.5528], [-72.3985, -39.5347], [-72.3271, -39.5138], [-72.4399, -39.4749], [-72.5171, -39.477], [-72.5324, -39.4337], [-72.658, -39.4603], [-72.7134, -39.426], [-72.7403, -39.4417], [-72.7895, -39.4324], [-72.7908, -39.4097]]]}, "properties": {"comuna": "Lanco", "locode": "CL LAN", "region": "Región de Los Ríos", "pool_status": "in viable pool", "unit_anchor": "Panguipulli", "cofinance_score": 21.5, "is_anchor": false, "pool_role": "other"}}, {"type": "Feature", "geometry": {"type": "Polygon", "coordinates": [[[-72.5866, -39.6604], [-72.6603, -39.6821], [-72.7255, -39.6648], [-72.6863, -39.7045], [-72.7341, -39.7209], [-72.7197, -39.7596], [-72.7548, -39.7453], [-72.7777, -39.7785], [-72.824, -39.775], [-72.8416, -39.7479], [-72.8699, -39.811], [-72.9367, -39.8185], [-72.9818, -39.7851], [-72.9493, -39.8667], [-72.9594, -39.9031], [-72.9407, -39.9045], [-72.9112, -39.9493], [-72.8417, -39.954], [-72.8327, -39.9833], [-72.8031, -39.9794], [-72.7734, -40.0168], [-72.7122, -40.0177], [-72.6926, -39.9934], [-72.6665, -40.0319], [-72.638, -40.0429], [-72.601, -40.0238], [-72.6263, -40.007], [-72.583, -39.9733], [-72.5402, -40.008], [-72.5006, -40.0084], [-72.4975, -39.9926], [-72.4754, -40.0132], [-72.4051, -40.0322], [-72.2825, -40.0079], [-72.2541, -39.9648], [-72.2366, -39.9949], [-72.1827, -39.9852], [-72.1637, -39.9591], [-72.1243, -39.9811], [-72.0953, -39.9576], [-72.0633, -39.9737], [-72.0319, -39.9535], [-72.0327, -39.9151], [-72.0786, -39.9224], [-72.1224, -39.8961], [-72.1607, -39.9093], [-72.1406, -39.8761], [-72.2165, -39.8338], [-72.2503, -39.8712], [-72.3528, -39.8062], [-72.4597, -39.7759], [-72.4904, -39.7443], [-72.5273, -39.7517], [-72.5087, -39.7189], [-72.5444, -39.6664], [-72.5866, -39.6604]]]}, "properties": {"comuna": "Los Lagos", "locode": "CL LLG", "region": "Región de Los Ríos", "pool_status": "in viable pool", "unit_anchor": "Valdivia", "cofinance_score": 42.8, "is_anchor": false, "pool_role": "pool member"}}, {"type": "Feature", "geometry": {"type": "Polygon", "coordinates": [[[-72.9369, -39.5931], [-72.9821, -39.615], [-72.9968, -39.6038], [-73.0076, -39.6232], [-73.0508, -39.6372], [-73.0933, -39.6915], [-73.0838, -39.7056], [-73.0998, -39.6961], [-73.0815, -39.7103], [-73.0228, -39.6925], [-72.9884, -39.7763], [-73.0127, -39.786], [-72.9751, -39.7859], [-72.9338, -39.819], [-72.8699, -39.811], [-72.8416, -39.7479], [-72.824, -39.775], [-72.7777, -39.7785], [-72.7548, -39.7453], [-72.7197, -39.7596], [-72.7341, -39.7209], [-72.6863, -39.7052], [-72.7203, -39.6622], [-72.6465, -39.6816], [-72.5928, -39.6513], [-72.6041, -39.6267], [-72.6416, -39.6268], [-72.657, -39.6114], [-72.7201, -39.6118], [-72.7416, -39.644], [-72.7646, -39.6442], [-72.7986, -39.6258], [-72.7851, -39.6103], [-72.9279, -39.619], [-72.9369, -39.5931]]]}, "properties": {"comuna": "Máfil", "locode": "CL MAF", "region": "Región de Los Ríos", "pool_status": "in viable pool", "unit_anchor": "Valdivia", "cofinance_score": 25.5, "is_anchor": false, "pool_role": "pool member"}}, {"type": "Feature", "geometry": {"type": "MultiPolygon", "coordinates": [[[[-73.2198, -39.4467], [-73.2651, -39.4566], [-73.2454, -39.4916], [-73.2606, -39.509], [-73.2513, -39.535], [-73.2792, -39.5421], [-73.2822, -39.5882], [-73.3238, -39.631], [-73.3125, -39.6456], [-73.2171, -39.6582], [-73.2221, -39.6769], [-73.1966, -39.6813], [-73.179, -39.6692], [-73.1905, -39.6234], [-73.1633, -39.5922], [-73.1694, -39.6081], [-73.1588, -39.6088], [-73.1747, -39.6276], [-73.1565, -39.6088], [-73.1277, -39.5951], [-73.1372, -39.6077], [-73.1619, -39.6167], [-73.1803, -39.6347], [-73.1659, -39.6219], [-73.1722, -39.6459], [-73.1638, -39.6637], [-73.1646, -39.6534], [-73.1495, -39.6273], [-73.1219, -39.6141], [-73.1486, -39.6281], [-73.1613, -39.6614], [-73.1512, -39.6515], [-73.137, -39.6516], [-73.126, -39.6406], [-73.1166, -39.6436], [-73.1376, -39.6526], [-73.1506, -39.6535], [-73.1864, -39.6898], [-73.1677, -39.7031], [-73.1478, -39.6861], [-73.1507, -39.7003], [-73.1328, -39.7036], [-73.1141, -39.6866], [-73.0923, -39.6908], [-73.0508, -39.6372], [-73.0076, -39.6232], [-72.9968, -39.6038], [-72.9821, -39.615], [-72.9601, -39.5921], [-72.9369, -39.5931], [-72.9279, -39.619], [-72.7851, -39.6103], [-72.7986, -39.6258], [-72.7646, -39.6442], [-72.7416, -39.644], [-72.7201, -39.6118], [-72.6093, -39.6261], [-72.6013, -39.6084], [-72.6764, -39.5684], [-72.7471, -39.5654], [-72.7716, -39.5294], [-72.8465, -39.5098], [-72.8485, -39.4379], [-72.8329, -39.4126], [-72.8688, -39.3985], [-72.8691, -39.4146], [-72.8968, -39.4327], [-72.9018, -39.3883], [-72.8356, -39.3212], [-72.8582, -39.2882], [-72.908, -39.2894], [-72.9461, -39.3173], [-73.0057, -39.2917], [-73.0235, -39.298], [-73.0337, -39.3371], [-73.0864, -39.3887], [-73.1329, -39.3933], [-73.16, -39.4159], [-73.2427, -39.3903], [-73.2158, -39.4224], [-73.2198, -39.4467]]], [[[-73.1742, -39.6377], [-73.179, -39.6368], [-73.174, -39.642], [-73.1742, -39.6377]]], [[[-73.1824, -39.6396], [-73.1814, -39.6404], [-73.1807, -39.6352], [-73.1824, -39.6396]]], [[[-73.1816, -39.6447], [-73.18, -39.6462], [-73.1799, -39.6452], [-73.1816, -39.6447]]], [[[-73.1846, -39.6444], [-73.1841, -39.6466], [-73.1838, -39.6438], [-73.1846, -39.6444]]], [[[-73.1366, -39.6031], [-73.1347, -39.6028], [-73.1344, -39.6018], [-73.1366, -39.6031]]], [[[-73.1397, -39.6046], [-73.1376, -39.6039], [-73.1377, -39.6035], [-73.1397, -39.6046]]], [[[-73.1738, -39.6218], [-73.1724, -39.6222], [-73.1723, -39.6217], [-73.1738, -39.6218]]]]}, "properties": {"comuna": "Mariquina", "locode": null, "region": "Región de Los Ríos", "pool_status": "not scored", "unit_anchor": null, "cofinance_score": null, "is_anchor": false, "pool_role": "other"}}, {"type": "Feature", "geometry": {"type": "Polygon", "coordinates": [[[-72.9419, -39.9258], [-73.0066, -39.9329], [-73.0267, -39.9504], [-72.9972, -39.976], [-73.0661, -39.9974], [-73.0811, -40.0318], [-73.0892, -40.0168], [-73.1723, -40.0132], [-73.1522, -40.0343], [-73.1568, -40.0625], [-73.0986, -40.0687], [-73.0628, -40.1027], [-73.012, -40.0863], [-73.0225, -40.1276], [-72.9869, -40.1384], [-72.9876, -40.1584], [-72.9566, -40.1482], [-72.9269, -40.1783], [-72.8443, -40.1557], [-72.8405, -40.2011], [-72.7937, -40.1808], [-72.752, -40.2012], [-72.7031, -40.1612], [-72.6733, -40.1731], [-72.6688, -40.1932], [-72.6342, -40.1794], [-72.5775, -40.1881], [-72.5403, -40.1678], [-72.5662, -40.1559], [-72.5431, -40.14], [-72.553, -40.0998], [-72.5954, -40.0858], [-72.5915, -40.0602], [-72.6131, -40.0448], [-72.6665, -40.0319], [-72.6901, -39.9945], [-72.7122, -40.0177], [-72.7689, -40.0179], [-72.8059, -39.9778], [-72.8327, -39.9833], [-72.8417, -39.954], [-72.9112, -39.9493], [-72.9419, -39.9258]]]}, "properties": {"comuna": "Paillaco", "locode": "CL PAO", "region": "Región de Los Ríos", "pool_status": "in viable pool", "unit_anchor": "Valdivia", "cofinance_score": 43.5, "is_anchor": false, "pool_role": "pool member"}}, {"type": "Feature", "geometry": {"type": "Polygon", "coordinates": [[[-71.8604, -39.4357], [-71.9395, -39.4202], [-72.1178, -39.5108], [-72.2075, -39.5306], [-72.2703, -39.5112], [-72.2367, -39.4712], [-72.2169, -39.4684], [-72.2643, -39.4709], [-72.3271, -39.5138], [-72.3985, -39.5347], [-72.4102, -39.5528], [-72.4461, -39.5584], [-72.4615, -39.5449], [-72.488, -39.5629], [-72.4767, -39.5826], [-72.5499, -39.5864], [-72.5663, -39.6365], [-72.6041, -39.6619], [-72.5444, -39.6664], [-72.5085, -39.7192], [-72.5273, -39.7517], [-72.4904, -39.7443], [-72.4597, -39.7759], [-72.3528, -39.8062], [-72.2503, -39.8712], [-72.2165, -39.8338], [-72.1406, -39.8761], [-72.1607, -39.9093], [-72.1224, -39.8961], [-72.0786, -39.9224], [-72.0327, -39.9151], [-72.0223, -39.9312], [-71.8936, -39.8964], [-71.8722, -39.919], [-71.8431, -39.9142], [-71.794, -39.9714], [-71.7932, -39.9852], [-71.8295, -40.0007], [-71.8081, -40.0176], [-71.8256, -40.0498], [-71.8191, -40.0751], [-71.6964, -40.1177], [-71.6671, -40.0942], [-71.6878, -40.0325], [-71.6513, -39.9729], [-71.6233, -39.9764], [-71.6242, -39.9383], [-71.5986, -39.9293], [-71.5944, -39.8951], [-71.6131, -39.875], [-71.634, -39.8812], [-71.6468, -39.8529], [-71.6712, -39.8637], [-71.6907, -39.8429], [-71.6922, -39.8235], [-71.667, -39.8076], [-71.6833, -39.8013], [-71.6804, -39.7659], [-71.7122, -39.7246], [-71.6937, -39.7073], [-71.704, -39.695], [-71.6692, -39.6824], [-71.7153, -39.6502], [-71.679, -39.5656], [-71.6961, -39.5631], [-71.7079, -39.5354], [-71.7043, -39.5019], [-71.7608, -39.5085], [-71.811, -39.4896], [-71.8604, -39.4357]]]}, "properties": {"comuna": "Panguipulli", "locode": "CL PAN", "region": "Región de Los Ríos", "pool_status": "anchor", "unit_anchor": "Panguipulli", "cofinance_score": 49.4, "is_anchor": true, "pool_role": "other"}}, {"type": "Feature", "geometry": {"type": "MultiPolygon", "coordinates": [[[[-73.7125, -40.1998], [-73.7147, -40.2453], [-73.6847, -40.2383], [-73.6718, -40.2769], [-73.6002, -40.3013], [-73.5775, -40.2832], [-73.5113, -40.2885], [-73.456, -40.2696], [-73.4474, -40.3042], [-73.4059, -40.3379], [-73.308, -40.3345], [-73.2721, -40.3524], [-73.1778, -40.3478], [-73.1488, -40.361], [-73.131, -40.3384], [-73.0654, -40.3196], [-72.9112, -40.3365], [-72.8012, -40.2728], [-72.7556, -40.2856], [-72.7183, -40.2644], [-72.6937, -40.273], [-72.6638, -40.2475], [-72.6202, -40.2555], [-72.6125, -40.2446], [-72.563, -40.2782], [-72.5318, -40.2572], [-72.5098, -40.1939], [-72.5403, -40.1678], [-72.5775, -40.1881], [-72.6342, -40.1794], [-72.6688, -40.1932], [-72.6733, -40.1731], [-72.7031, -40.1612], [-72.752, -40.2012], [-72.7937, -40.1808], [-72.8405, -40.2011], [-72.8443, -40.1557], [-72.9269, -40.1783], [-72.9566, -40.1482], [-72.9876, -40.1584], [-72.9869, -40.1384], [-73.0225, -40.1276], [-73.012, -40.0863], [-73.0628, -40.1027], [-73.0986, -40.0687], [-73.1481, -40.064], [-73.1423, -40.0959], [-73.2148, -40.1114], [-73.2618, -40.0709], [-73.3018, -40.0641], [-73.3498, -40.0655], [-73.4161, -40.1161], [-73.4467, -40.1124], [-73.4786, -40.1021], [-73.4629, -40.0767], [-73.492, -40.0394], [-73.6263, -39.9805], [-73.6658, -40.007], [-73.7063, -40.0063], [-73.6646, -40.051], [-73.6529, -40.134], [-73.6605, -40.1578], [-73.6842, -40.1592], [-73.6958, -40.1918], [-73.7078, -40.1992], [-73.7125, -40.1998]]], [[[-73.7226, -40.2346], [-73.7224, -40.2339], [-73.7229, -40.2345], [-73.7226, -40.2346]]], [[[-73.712, -40.1995], [-73.7118, -40.1988], [-73.7123, -40.199], [-73.712, -40.1995]]]]}, "properties": {"comuna": "La Unión", "locode": "CL LUN", "region": "Región de Los Ríos", "pool_status": "in viable pool", "unit_anchor": "Lago Ranco", "cofinance_score": 57.6, "is_anchor": false, "pool_role": "other"}}, {"type": "Feature", "geometry": {"type": "Polygon", "coordinates": [[[-71.7617, -40.2763], [-71.8295, -40.2169], [-71.7978, -40.1875], [-71.8285, -40.1733], [-71.7992, -40.1377], [-71.8032, -40.1101], [-71.8311, -40.1064], [-71.8114, -40.0783], [-71.8256, -40.0498], [-71.808, -40.0186], [-71.8296, -40.0011], [-71.7932, -39.9852], [-71.794, -39.9714], [-71.8248, -39.9422], [-71.8221, -39.927], [-71.8496, -39.9115], [-71.8722, -39.919], [-71.8931, -39.8964], [-72.0283, -39.929], [-72.0331, -39.9555], [-72.0633, -39.9737], [-72.0953, -39.9576], [-72.1243, -39.9811], [-72.1637, -39.9591], [-72.1827, -39.9852], [-72.2366, -39.9949], [-72.2541, -39.9648], [-72.2825, -40.0079], [-72.4051, -40.0322], [-72.4754, -40.0132], [-72.4975, -39.9926], [-72.5006, -40.0084], [-72.5402, -40.008], [-72.583, -39.9733], [-72.6263, -40.007], [-72.601, -40.0238], [-72.637, -40.0428], [-72.5915, -40.0602], [-72.5954, -40.0858], [-72.5479, -40.1072], [-72.5431, -40.14], [-72.5662, -40.1559], [-72.5078, -40.1896], [-72.4182, -40.2006], [-72.4072, -40.2143], [-72.4165, -40.2305], [-72.3946, -40.2479], [-72.2863, -40.219], [-72.2564, -40.2348], [-72.222, -40.2073], [-72.1852, -40.2093], [-72.0603, -40.2588], [-71.9792, -40.3174], [-71.9037, -40.3186], [-71.7999, -40.3479], [-71.6572, -40.353], [-71.6843, -40.2936], [-71.7168, -40.2788], [-71.747, -40.3067], [-71.7617, -40.2763]]]}, "properties": {"comuna": "Futrono", "locode": "CL FUT", "region": "Región de Los Ríos", "pool_status": "in viable pool", "unit_anchor": "Panguipulli", "cofinance_score": 59.9, "is_anchor": false, "pool_role": "other"}}, {"type": "Feature", "geometry": {"type": "Polygon", "coordinates": [[[-71.6572, -40.353], [-71.7999, -40.3479], [-71.9037, -40.3186], [-71.9792, -40.3174], [-72.0603, -40.2588], [-72.1852, -40.2093], [-72.222, -40.2073], [-72.2564, -40.2348], [-72.287, -40.2191], [-72.3878, -40.2493], [-72.4165, -40.2305], [-72.4072, -40.2143], [-72.4182, -40.2006], [-72.511, -40.1875], [-72.5318, -40.2572], [-72.5607, -40.2775], [-72.6064, -40.2607], [-72.6125, -40.2446], [-72.6839, -40.258], [-72.637, -40.2619], [-72.6345, -40.2953], [-72.5663, -40.3269], [-72.5747, -40.3411], [-72.5494, -40.3786], [-72.5113, -40.3768], [-72.3748, -40.427], [-72.3196, -40.4271], [-72.305, -40.4363], [-72.2965, -40.4911], [-72.2229, -40.5121], [-72.1142, -40.583], [-72.104, -40.55], [-72.0778, -40.534], [-72.0446, -40.5388], [-71.9846, -40.5152], [-71.9532, -40.5439], [-71.8585, -40.5546], [-71.8255, -40.4205], [-71.7939, -40.4073], [-71.741, -40.4373], [-71.7102, -40.4247], [-71.6922, -40.4039], [-71.6937, -40.3732], [-71.6572, -40.353]]]}, "properties": {"comuna": "Lago Ranco", "locode": "CL RNC", "region": "Región de Los Ríos", "pool_status": "anchor", "unit_anchor": "Lago Ranco", "cofinance_score": 78.6, "is_anchor": true, "pool_role": "other"}}, {"type": "Feature", "geometry": {"type": "Polygon", "coordinates": [[[-72.6365, -40.2626], [-72.7183, -40.2644], [-72.7556, -40.2856], [-72.8012, -40.2728], [-72.9112, -40.3365], [-73.0654, -40.3196], [-73.136, -40.3499], [-73.0786, -40.3451], [-73.0306, -40.3842], [-72.9796, -40.3859], [-72.9031, -40.4451], [-72.8925, -40.5065], [-72.8581, -40.5369], [-72.8148, -40.5454], [-72.8195, -40.5564], [-72.7721, -40.6013], [-72.6558, -40.6254], [-72.6448, -40.6564], [-72.6069, -40.6812], [-72.4375, -40.6542], [-72.3569, -40.6597], [-72.3349, -40.6758], [-72.2865, -40.6463], [-72.199, -40.6717], [-72.1628, -40.6578], [-72.1, -40.6636], [-72.067, -40.6562], [-72.0521, -40.6301], [-71.9703, -40.6349], [-71.9292, -40.591], [-71.88, -40.5789], [-71.8887, -40.5514], [-71.9532, -40.5439], [-71.9846, -40.5152], [-72.0446, -40.5388], [-72.0778, -40.534], [-72.1195, -40.5816], [-72.1518, -40.5482], [-72.2965, -40.4911], [-72.305, -40.4363], [-72.3196, -40.4271], [-72.3748, -40.427], [-72.5113, -40.3768], [-72.5494, -40.3786], [-72.5747, -40.3411], [-72.5663, -40.3269], [-72.6243, -40.3072], [-72.6365, -40.2626]]]}, "properties": {"comuna": "Río Bueno", "locode": null, "region": "Región de Los Ríos", "pool_status": "not scored", "unit_anchor": null, "cofinance_score": null, "is_anchor": false, "pool_role": "other"}}]}